[
    {
        "Altitude(m)": 711616.0824442308,
        "Argument of Periapsis(deg)": 0.011390121186627068,
        "Eccentricity": 0.0,
        "Inclination(deg)": 45.0,
        "Latitude(deg)": -29.75345299651817,
        "Longitude(deg)": 8.87596392949606,
        "Mean Anomaly(deg)": -135.73948335251913,
        "RAAN(deg)": 254.98924805854182,
        "Satellite Name": "Constellation 1 1135",
        "Satellite Number": 1135,
        "Semi-Major Axis(m)": 7083131.272910544,
        "Time(s)": 190
    },
    {
        "Altitude(m)": 711629.7808425463,
        "Argument of Periapsis(deg)": 0.011450069192872472,
        "Eccentricity": 0.0,
        "Inclination(deg)": 45.0,
        "Latitude(deg)": -29.78884528956574,
        "Longitude(deg)": 8.928543711312981,
        "Mean Anomaly(deg)": -135.67878221226928,
        "RAAN(deg)": 254.9891914693762,
        "Satellite Name": "Constellation 1 1135",
        "Satellite Number": 1135,
        "Semi-Major Axis(m)": 7083131.272910544,
        "Time(s)": 191
    },
    {
        "Altitude(m)": 711643.4754463113,
        "Argument of Periapsis(deg)": 0.01151001719911788,
        "Eccentricity": 0.0,
        "Inclination(deg)": 45.0,
        "Latitude(deg)": -29.824212999995378,
        "Longitude(deg)": 8.98116323157863,
        "Mean Anomaly(deg)": -135.6180810720194,
        "RAAN(deg)": 254.98913488021066,
        "Satellite Name": "Constellation 1 1135",
        "Satellite Number": 1135,
        "Semi-Major Axis(m)": 7083131.272910544,
        "Time(s)": 192
    },
    {
        "Altitude(m)": 711657.1662075174,
        "Argument of Periapsis(deg)": 0.011569965205363285,
        "Eccentricity": 0.0,
        "Inclination(deg)": 45.0,
        "Latitude(deg)": -29.85955607637905,
        "Longitude(deg)": 9.033822379635195,
        "Mean Anomaly(deg)": -135.55737993176947,
        "RAAN(deg)": 254.9890782910451,
        "Satellite Name": "Constellation 1 1135",
        "Satellite Number": 1135,
        "Semi-Major Axis(m)": 7083131.272910544,
        "Time(s)": 193
    },
    {
        "Altitude(m)": 711670.853078167,
        "Argument of Periapsis(deg)": 0.01162991321160869,
        "Eccentricity": 0.0,
        "Inclination(deg)": 45.0,
        "Latitude(deg)": -29.89487446721623,
        "Longitude(deg)": 9.086521549061196,
        "Mean Anomaly(deg)": -135.4966787915195,
        "RAAN(deg)": 254.98902170187955,
        "Satellite Name": "Constellation 1 1135",
        "Satellite Number": 1135,
        "Semi-Major Axis(m)": 7083131.272910544,
        "Time(s)": 194
    },
    {
        "Altitude(m)": 711684.5360102581,
        "Argument of Periapsis(deg)": 0.011689861217854095,
        "Eccentricity": 0.0,
        "Inclination(deg)": 45.0,
        "Latitude(deg)": -29.93016812093571,
        "Longitude(deg)": 9.13926062908805,
        "Mean Anomaly(deg)": -135.43597765126972,
        "RAAN(deg)": 254.98896511271397,
        "Satellite Name": "Constellation 1 1135",
        "Satellite Number": 1135,
        "Semi-Major Axis(m)": 7083131.272910544,
        "Time(s)": 195
    },
    {
        "Altitude(m)": 711698.2149558027,
        "Argument of Periapsis(deg)": 0.0117498092240995,
        "Eccentricity": 0.0,
        "Inclination(deg)": 45.0,
        "Latitude(deg)": -29.965436985894808,
        "Longitude(deg)": 9.192039676989168,
        "Mean Anomaly(deg)": -135.3752765110198,
        "RAAN(deg)": 254.98890852354836,
        "Satellite Name": "Constellation 1 1135",
        "Satellite Number": 1135,
        "Semi-Major Axis(m)": 7083131.272910544,
        "Time(s)": 196
    },
    {
        "Altitude(m)": 711711.8898668145,
        "Argument of Periapsis(deg)": 0.011809757230344905,
        "Eccentricity": 0.0,
        "Inclination(deg)": 45.0,
        "Latitude(deg)": -30.000681010378827,
        "Longitude(deg)": 9.24485874998015,
        "Mean Anomaly(deg)": -135.31457537076983,
        "RAAN(deg)": 254.9888519343828,
        "Satellite Name": "Constellation 1 1135",
        "Satellite Number": 1135,
        "Semi-Major Axis(m)": 7083131.272910544,
        "Time(s)": 197
    },
    {
        "Altitude(m)": 711725.5606953071,
        "Argument of Periapsis(deg)": 0.011869705236590313,
        "Eccentricity": 0.0,
        "Inclination(deg)": 45.0,
        "Latitude(deg)": -30.035900142601644,
        "Longitude(deg)": 9.297717905219608,
        "Mean Anomaly(deg)": -135.25387423051998,
        "RAAN(deg)": 254.98879534521726,
        "Satellite Name": "Constellation 1 1135",
        "Satellite Number": 1135,
        "Semi-Major Axis(m)": 7083131.272910544,
        "Time(s)": 198
    },
    {
        "Altitude(m)": 711739.2273933084,
        "Argument of Periapsis(deg)": 0.011929653242835719,
        "Eccentricity": 0.0,
        "Inclination(deg)": 45.0,
        "Latitude(deg)": -30.071094330705456,
        "Longitude(deg)": 9.350617199807823,
        "Mean Anomaly(deg)": -135.19317309027014,
        "RAAN(deg)": 254.9887387560517,
        "Satellite Name": "Constellation 1 1135",
        "Satellite Number": 1135,
        "Semi-Major Axis(m)": 7083131.272910544,
        "Time(s)": 199
    }
]